{
  "norad_id": 61718,
  "name": "STARLINK-32591",
  "history": [
    {
      "epoch": "2026-04-11T19:09:52.788096Z",
      "apogee_km": 476.1532965119877,
      "perigee_km": 474.3344092336356,
      "latitude_deg": -1.1864054352871735e-06,
      "longitude_deg": 167.39490546484882,
      "height_km": 476.2358585259986,
      "semi_major_axis_km": 6853.380852872811,
      "eccentricity": 0.0001327,
      "inclination_deg": 53.1617,
      "raan_deg": 294.8777,
      "arg_perigee_deg": 95.9214,
      "mean_anomaly_deg": 264.1938,
      "mean_motion_rev_day": 15.3019036
    },
    {
      "epoch": "2026-04-13T05:39:03.080448Z",
      "apogee_km": 476.1034358515835,
      "perigee_km": 474.3835114879121,
      "latitude_deg": -3.4780789788249024e-05,
      "longitude_deg": 2.0109973586777676,
      "height_km": 476.2482728840495,
      "semi_major_axis_km": 6853.3804736697475,
      "eccentricity": 0.00012548,
      "inclination_deg": 53.1606,
      "raan_deg": 288.203,
      "arg_perigee_deg": 97.1224,
      "mean_anomaly_deg": 262.9919,
      "mean_motion_rev_day": 15.30190487
    },
    {
      "epoch": "2026-04-14T20:50:23.006976Z",
      "apogee_km": 476.03722502222263,
      "perigee_km": 474.45135259199196,
      "latitude_deg": 1.552509544593684e-05,
      "longitude_deg": 124.98407975849591,
      "height_km": 476.2124664250997,
      "semi_major_axis_km": 6853.381288807107,
      "eccentricity": 0.0001157,
      "inclination_deg": 53.1605,
      "raan_deg": 280.6185,
      "arg_perigee_deg": 95.0571,
      "mean_anomaly_deg": 265.0562,
      "mean_motion_rev_day": 15.30190214
    },
    {
      "epoch": "2026-04-15T20:21:10.807200Z",
      "apogee_km": 475.9311963076216,
      "perigee_km": 474.5481848914578,
      "latitude_deg": 1.786698199144759e-05,
      "longitude_deg": 126.76795979231414,
      "height_km": 476.25239634039417,
      "semi_major_axis_km": 6853.376690599539,
      "eccentricity": 0.0001009,
      "inclination_deg": 53.1599,
      "raan_deg": 276.0672,
      "arg_perigee_deg": 99.5123,
      "mean_anomaly_deg": 260.5992,
      "mean_motion_rev_day": 15.30191754
    },
    {
      "epoch": "2026-04-16T15:09:49.336128Z",
      "apogee_km": 475.95225802503955,
      "perigee_km": 474.53634944768874,
      "latitude_deg": -9.391995605111014e-07,
      "longitude_deg": -159.80531802060352,
      "height_km": 476.2386351451664,
      "semi_major_axis_km": 6853.381303736364,
      "eccentricity": 0.0001033,
      "inclination_deg": 53.1593,
      "raan_deg": 272.427,
      "arg_perigee_deg": 97.7937,
      "mean_anomaly_deg": 262.3181,
      "mean_motion_rev_day": 15.30190209
    },
    {
      "epoch": "2026-04-17T20:56:50.117856Z",
      "apogee_km": 476.0436921747187,
      "perigee_km": 474.4349306193826,
      "latitude_deg": -8.068901952483991e-06,
      "longitude_deg": 106.45415421878643,
      "height_km": 476.1063712805605,
      "semi_major_axis_km": 6853.376311397051,
      "eccentricity": 0.00011737,
      "inclination_deg": 53.1597,
      "raan_deg": 266.6629,
      "arg_perigee_deg": 87.7832,
      "mean_anomaly_deg": 272.3303,
      "mean_motion_rev_day": 15.30191881
    },
    {
      "epoch": "2026-04-18T20:27:37.368576Z",
      "apogee_km": 475.91499088182536,
      "perigee_km": 474.5073131713998,
      "latitude_deg": 4.7364011291517874e-05,
      "longitude_deg": 108.23976792036338,
      "height_km": 475.84083069509774,
      "semi_major_axis_km": 6853.348152026612,
      "eccentricity": 0.0001027,
      "inclination_deg": 53.1595,
      "raan_deg": 262.111,
      "arg_perigee_deg": 67.5505,
      "mean_anomaly_deg": 292.5605,
      "mean_motion_rev_day": 15.30201312
    },
    {
      "epoch": "2026-04-19T19:58:26.126112Z",
      "apogee_km": 475.8961185079961,
      "perigee_km": 474.5939759190269,
      "latitude_deg": -6.02922886025038e-08,
      "longitude_deg": 110.0189082100801,
      "height_km": 475.7721041728715,
      "semi_major_axis_km": 6853.382047213511,
      "eccentricity": 9.5e-05,
      "inclination_deg": 53.1597,
      "raan_deg": 257.559,
      "arg_perigee_deg": 55.1926,
      "mean_anomaly_deg": 304.9164,
      "mean_motion_rev_day": 15.3018996
    },
    {
      "epoch": "2026-04-20T10:04:54.555168Z",
      "apogee_km": 475.90650563445706,
      "perigee_km": 474.54172730172377,
      "latitude_deg": 2.011052333763596e-05,
      "longitude_deg": -104.90812304206615,
      "height_km": 475.9040733102125,
      "semi_major_axis_km": 6853.361116468091,
      "eccentricity": 9.957e-05,
      "inclination_deg": 53.1599,
      "raan_deg": 254.8298,
      "arg_perigee_deg": 71.3208,
      "mean_anomaly_deg": 288.7901,
      "mean_motion_rev_day": 15.3019697
    },
    {
      "epoch": "2026-04-21T15:51:54.728640Z",
      "apogee_km": 475.94458093631147,
      "perigee_km": 474.5012633367096,
      "latitude_deg": 2.980691131476733e-06,
      "longitude_deg": 161.35347836633454,
      "height_km": 475.8734396134366,
      "semi_major_axis_km": 6853.35992213651,
      "eccentricity": 0.0001053,
      "inclination_deg": 53.1582,
      "raan_deg": 249.0653,
      "arg_perigee_deg": 69.9218,
      "mean_anomaly_deg": 290.1896,
      "mean_motion_rev_day": 15.3019737
    },
    {
      "epoch": "2026-04-22T15:22:43.373856Z",
      "apogee_km": 476.1092915331119,
      "perigee_km": 474.375386560333,
      "latitude_deg": -2.846890274075849e-05,
      "longitude_deg": 163.13739844437873,
      "height_km": 476.0241569448375,
      "semi_major_axis_km": 6853.379339046723,
      "eccentricity": 0.0001265,
      "inclination_deg": 53.1618,
      "raan_deg": 244.5176,
      "arg_perigee_deg": 82.2789,
      "mean_anomaly_deg": 277.8355,
      "mean_motion_rev_day": 15.30190867
    },
    {
      "epoch": "2026-04-23T11:45:24.640992Z",
      "apogee_km": 476.0855140465719,
      "perigee_km": 474.3916337397286,
      "latitude_deg": -3.4396381596971274e-05,
      "longitude_deg": -147.31505416566185,
      "height_km": 475.8765692998604,
      "semi_major_axis_km": 6853.37557389315,
      "eccentricity": 0.00012358,
      "inclination_deg": 53.1621,
      "raan_deg": 240.574,
      "arg_perigee_deg": 72.0909,
      "mean_anomaly_deg": 288.0226,
      "mean_motion_rev_day": 15.30192128
    }
  ]
}